start=new Date('2021-10-28T00:00:00.000Z').valueOf();
sats=[{"NORAD_CAT_ID":"44969","CENTER_NAME":"EARTH","RCS_SIZE":"LARGE","COUNTRY_CODE":"US","RA_OF_ASC_NODE":"263.7978","ARG_OF_PERICENTER":"68.6706","MEAN_ELEMENT_THEORY":"SGP4","REF_FRAME":"TEME","LAUNCH_DATE":"2020-01-07","MEAN_ANOMALY":"291.4443","DECAY_DATE":null,"CLASSIFICATION_TYPE":"U","SITE":"AFETR","MEAN_MOTION_DDOT":"0.0000000000000","APOAPSIS":"548.235","TLE_LINE1":"1 44969U 20001BH  21300.37033099  .00001524  00000-0  12117-3 0  9992","PERIAPSIS":"546.153","REV_AT_EPOCH":"10010","EPOCH":"2021-10-27T08:53:16.597536","OBJECT_TYPE":"PAYLOAD","BSTAR":"0.00012117000000","GP_ID":"188270374","FILE":"3187107","TIME_SYSTEM":"UTC","EPHEMERIS_TYPE":"0","PERIOD":"95.592","TLE_LINE2":"2 44969  53.0533 263.7978 0001503  68.6706 291.4443 15.06406475100104","SEMIMAJOR_AXIS":"6925.329","OBJECT_ID":"2020-001BH","OBJECT_NAME":"STARLINK-1092","ECCENTRICITY":"0.00015030","MEAN_MOTION_DOT":"0.00001524","ELEMENT_SET_NO":"999","MEAN_MOTION":"15.06406475","INCLINATION":"53.0533"},{"ARG_OF_PERICENTER":"71.5211","LAUNCH_DATE":"2020-01-07","REF_FRAME":"TEME","MEAN_ELEMENT_THEORY":"SGP4","NORAD_CAT_ID":"44970","CENTER_NAME":"EARTH","COUNTRY_CODE":"US","RA_OF_ASC_NODE":"264.2021","RCS_SIZE":"LARGE","TLE_LINE1":"1 44970U 20001BJ  21300.28187164  .00000701  00000-0  65989-4 0  9999","APOAPSIS":"548.337","DECAY_DATE":null,"CLASSIFICATION_TYPE":"U","MEAN_ANOMALY":"288.5953","MEAN_MOTION_DDOT":"0.0000000000000","SITE":"AFETR","FILE":"3187107","GP_ID":"188270624","BSTAR":"0.00006598900000","OBJECT_TYPE":"PAYLOAD","EPOCH":"2021-10-27T06:45:53.709696","REV_AT_EPOCH":"10008","PERIAPSIS":"546.102","MEAN_MOTION":"15.06398046","MEAN_MOTION_DOT":"0.00000701","ELEMENT_SET_NO":"999","ECCENTRICITY":"0.00016130","OBJECT_NAME":"STARLINK-1093","INCLINATION":"53.0551","TIME_SYSTEM":"UTC","EPHEMERIS_TYPE":"0","OBJECT_ID":"2020-001BJ","SEMIMAJOR_AXIS":"6925.355","TLE_LINE2":"2 44970  53.0551 264.2021 0001613  71.5211 288.5953 15.06398046100081","PERIOD":"95.592"},{"APOAPSIS":"548.224","TLE_LINE1":"1 44972U 20001BL  21300.38507591 -.00001229  00000-0 -63658-4 0  9991","MEAN_MOTION_DDOT":"0.0000000000000","SITE":"AFETR","DECAY_DATE":null,"CLASSIFICATION_TYPE":"U","MEAN_ANOMALY":"276.8149","MEAN_ELEMENT_THEORY":"SGP4","LAUNCH_DATE":"2020-01-07","REF_FRAME":"TEME","ARG_OF_PERICENTER":"83.3005","RCS_SIZE":"LARGE","RA_OF_ASC_NODE":"263.7271","COUNTRY_CODE":"US","CENTER_NAME":"EARTH","NORAD_CAT_ID":"44972","INCLINATION":"53.0536","ECCENTRICITY":"0.00014520","OBJECT_NAME":"STARLINK-1107","MEAN_MOTION":"15.06398506","ELEMENT_SET_NO":"999","MEAN_MOTION_DOT":"-0.00001229","TLE_LINE2":"2 44972  53.0536 263.7271 0001452  83.3005 276.8149 15.06398506100112","PERIOD":"95.592","OBJECT_ID":"2020-001BL","SEMIMAJOR_AXIS":"6925.353","EPHEMERIS_TYPE":"0","TIME_SYSTEM":"UTC","GP_ID":"188285480","FILE":"3187657","REV_AT_EPOCH":"10011","PERIAPSIS":"546.213","BSTAR":"-0.00006365800000","OBJECT_TYPE":"PAYLOAD","EPOCH":"2021-10-27T09:14:30.558624"},{"APOAPSIS":"548.453","TLE_LINE1":"1 44973U 20001BM  21300.36296379  .00000885  00000-0  78333-4 0  9990","SITE":"AFETR","MEAN_MOTION_DDOT":"0.0000000000000","MEAN_ANOMALY":"286.3202","DECAY_DATE":null,"CLASSIFICATION_TYPE":"U","MEAN_ELEMENT_THEORY":"SGP4","REF_FRAME":"TEME","LAUNCH_DATE":"2020-01-07","ARG_OF_PERICENTER":"73.7983","RCS_SIZE":"LARGE","COUNTRY_CODE":"US","RA_OF_ASC_NODE":"263.8337","NORAD_CAT_ID":"44973","CENTER_NAME":"EARTH","INCLINATION":"53.0544","OBJECT_NAME":"STARLINK-1115","ECCENTRICITY":"0.00017850","ELEMENT_SET_NO":"999","MEAN_MOTION_DOT":"0.00000885","MEAN_MOTION":"15.06398849","PERIOD":"95.592","TLE_LINE2":"2 44973  53.0544 263.8337 0001785  73.7983 286.3202 15.06398849100108","SEMIMAJOR_AXIS":"6925.352","OBJECT_ID":"2020-001BM","TIME_SYSTEM":"UTC","EPHEMERIS_TYPE":"0","GP_ID":"188271127","FILE":"3187107","PERIAPSIS":"545.981","REV_AT_EPOCH":"10010","EPOCH":"2021-10-27T08:42:40.071456","OBJECT_TYPE":"PAYLOAD","BSTAR":"0.00007833300000"},{"TLE_LINE1":"1 45044U 20006A   21300.07176033  .00001408  00000-0  11335-3 0  9997","APOAPSIS":"548.400","CLASSIFICATION_TYPE":"U","DECAY_DATE":null,"MEAN_ANOMALY":"292.7616","MEAN_MOTION_DDOT":"0.0000000000000","SITE":"AFETR","ARG_OF_PERICENTER":"67.3560","LAUNCH_DATE":"2020-01-29","REF_FRAME":"TEME","MEAN_ELEMENT_THEORY":"SGP4","NORAD_CAT_ID":"45044","CENTER_NAME":"EARTH","COUNTRY_CODE":"US","RA_OF_ASC_NODE":"225.1413","RCS_SIZE":"LARGE","MEAN_MOTION":"15.06412927","MEAN_MOTION_DOT":"0.00001408","ELEMENT_SET_NO":"999","ECCENTRICITY":"0.00017710","OBJECT_NAME":"STARLINK-1132","INCLINATION":"53.0549","EPHEMERIS_TYPE":"0","TIME_SYSTEM":"UTC","OBJECT_ID":"2020-006A","SEMIMAJOR_AXIS":"6925.309","TLE_LINE2":"2 45044  53.0549 225.1413 0001771  67.3560 292.7616 15.06412927 96393","PERIOD":"95.591","FILE":"3187107","GP_ID":"188271633","BSTAR":"0.00011335000000","OBJECT_TYPE":"PAYLOAD","EPOCH":"2021-10-27T01:43:20.092512","REV_AT_EPOCH":"9639","PERIAPSIS":"545.947"},{"DECAY_DATE":null,"CLASSIFICATION_TYPE":"U","MEAN_ANOMALY":"292.3779","MEAN_MOTION_DDOT":"0.0000000000000","SITE":"AFETR","TLE_LINE1":"1 45045U 20006B   21300.25790636  .00000927  00000-0  81096-4 0  9996","APOAPSIS":"548.337","NORAD_CAT_ID":"45045","CENTER_NAME":"EARTH","COUNTRY_CODE":"US","RA_OF_ASC_NODE":"244.3025","RCS_SIZE":"LARGE","ARG_OF_PERICENTER":"67.7383","LAUNCH_DATE":"2020-01-29","REF_FRAME":"TEME","MEAN_ELEMENT_THEORY":"SGP4","EPHEMERIS_TYPE":"0","TIME_SYSTEM":"UTC","OBJECT_ID":"2020-006B","SEMIMAJOR_AXIS":"6925.341","TLE_LINE2":"2 45045  53.0539 244.3025 0001633  67.7383 292.3779 15.06402551 96140","PERIOD":"95.592","MEAN_MOTION":"15.06402551","ELEMENT_SET_NO":"999","MEAN_MOTION_DOT":"0.00000927","ECCENTRICITY":"0.00016330","OBJECT_NAME":"STARLINK-1120","INCLINATION":"53.0539","BSTAR":"0.00008109600000","EPOCH":"2021-10-27T06:11:23.109504","OBJECT_TYPE":"PAYLOAD","REV_AT_EPOCH":"9614","PERIAPSIS":"546.075","FILE":"3187107","GP_ID":"188270381"},{"EPOCH":"2021-10-27T08:50:02.347872","OBJECT_TYPE":"PAYLOAD","BSTAR":"0.00046377000000","PERIAPSIS":"540.398","REV_AT_EPOCH":"9618","FILE":"3187107","GP_ID":"188270631","TIME_SYSTEM":"UTC","EPHEMERIS_TYPE":"0","SEMIMAJOR_AXIS":"6919.699","OBJECT_ID":"2020-006C","PERIOD":"95.475","TLE_LINE2":"2 45046  52.9974 240.3248 0001686  78.5360 281.5818 15.08245152 96180","ELEMENT_SET_NO":"999","MEAN_MOTION_DOT":"0.00006984","MEAN_MOTION":"15.08245152","OBJECT_NAME":"STARLINK-1129","ECCENTRICITY":"0.00016860","INCLINATION":"52.9974","CENTER_NAME":"EARTH","NORAD_CAT_ID":"45046","RA_OF_ASC_NODE":"240.3248","COUNTRY_CODE":"US","RCS_SIZE":"LARGE","ARG_OF_PERICENTER":"78.5360","REF_FRAME":"TEME","LAUNCH_DATE":"2020-01-29","MEAN_ELEMENT_THEORY":"SGP4","MEAN_ANOMALY":"281.5818","CLASSIFICATION_TYPE":"U","DECAY_DATE":null,"SITE":"AFETR","MEAN_MOTION_DDOT":"0.0000000000000","TLE_LINE1":"1 45046U 20006C   21300.36808273  .00006984  00000-0  46377-3 0  9997","APOAPSIS":"542.731"},{"TLE_LINE2":"2 45047  53.0541 243.9959 0001727  81.2340 278.8844 15.06387634 96151","PERIOD":"95.593","OBJECT_ID":"2020-006D","SEMIMAJOR_AXIS":"6925.386","TIME_SYSTEM":"UTC","EPHEMERIS_TYPE":"0","INCLINATION":"53.0541","OBJECT_NAME":"STARLINK-1131","ECCENTRICITY":"0.00017270","MEAN_MOTION":"15.06387634","MEAN_MOTION_DOT":"0.00001874","ELEMENT_SET_NO":"999","REV_AT_EPOCH":"9615","PERIAPSIS":"546.055","BSTAR":"0.00014475000000","EPOCH":"2021-10-27T07:52:14.554272","OBJECT_TYPE":"PAYLOAD","GP_ID":"188271383","FILE":"3187107","MEAN_MOTION_DDOT":"0.0000000000000","SITE":"AFETR","DECAY_DATE":null,"CLASSIFICATION_TYPE":"U","MEAN_ANOMALY":"278.8844","APOAPSIS":"548.447","TLE_LINE1":"1 45047U 20006D   21300.32794623  .00001874  00000-0  14475-3 0  9994","RCS_SIZE":"LARGE","COUNTRY_CODE":"US","RA_OF_ASC_NODE":"243.9959","CENTER_NAME":"EARTH","NORAD_CAT_ID":"45047","MEAN_ELEMENT_THEORY":"SGP4","LAUNCH_DATE":"2020-01-29","REF_FRAME":"TEME","ARG_OF_PERICENTER":"81.2340"},{"FILE":"3187107","GP_ID":"188271134","BSTAR":"-0.00000006303600","OBJECT_TYPE":"PAYLOAD","EPOCH":"2021-10-27T06:27:19.217952","REV_AT_EPOCH":"9614","PERIAPSIS":"546.031","MEAN_MOTION":"15.06403296","MEAN_MOTION_DOT":"-0.00000283","ELEMENT_SET_NO":"999","ECCENTRICITY":"0.00016930","OBJECT_NAME":"STARLINK-1134","INCLINATION":"53.0539","TIME_SYSTEM":"UTC","EPHEMERIS_TYPE":"0","OBJECT_ID":"2020-006E","SEMIMAJOR_AXIS":"6925.338","TLE_LINE2":"2 45048  53.0539 244.2552 0001693  66.3611 293.7556 15.06403296 96147","PERIOD":"95.592","ARG_OF_PERICENTER":"66.3611","LAUNCH_DATE":"2020-01-29","REF_FRAME":"TEME","MEAN_ELEMENT_THEORY":"SGP4","NORAD_CAT_ID":"45048","CENTER_NAME":"EARTH","COUNTRY_CODE":"US","RA_OF_ASC_NODE":"244.2552","RCS_SIZE":"LARGE","TLE_LINE1":"1 45048U 20006E   21300.26897243 -.00000283  00000-0 -63036-7 0  9996","APOAPSIS":"548.376","CLASSIFICATION_TYPE":"U","DECAY_DATE":null,"MEAN_ANOMALY":"293.7556","MEAN_MOTION_DDOT":"0.0000000000000","SITE":"AFETR"},{"GP_ID":"188269882","FILE":"3187107","PERIAPSIS":"546.110","REV_AT_EPOCH":"9614","BSTAR":"-0.00007561600000","EPOCH":"2021-10-27T06:32:37.653792","OBJECT_TYPE":"PAYLOAD","OBJECT_NAME":"STARLINK-1135","ECCENTRICITY":"0.00016210","MEAN_MOTION":"15.06393947","MEAN_MOTION_DOT":"-0.00001407","ELEMENT_SET_NO":"999","INCLINATION":"53.0547","EPHEMERIS_TYPE":"0","TIME_SYSTEM":"UTC","TLE_LINE2":"2 45049  53.0547 244.2416 0001621  69.9143 290.2020 15.06393947 96145","PERIOD":"95.593","OBJECT_ID":"2020-006F","SEMIMAJOR_AXIS":"6925.367","ARG_OF_PERICENTER":"69.9143","MEAN_ELEMENT_THEORY":"SGP4","LAUNCH_DATE":"2020-01-29","REF_FRAME":"TEME","NORAD_CAT_ID":"45049","CENTER_NAME":"EARTH","RCS_SIZE":"LARGE","RA_OF_ASC_NODE":"244.2416","COUNTRY_CODE":"US","APOAPSIS":"548.355","TLE_LINE1":"1 45049U 20006F   21300.27265803 -.00001407  00000-0 -75616-4 0  9992","DECAY_DATE":null,"CLASSIFICATION_TYPE":"U","MEAN_ANOMALY":"290.2020","MEAN_MOTION_DDOT":"0.0000000000000","SITE":"AFETR"}];
